[{"OBJECT_NAME":"IRIDIUM 108","OBJECT_ID":"2017-003H","EPOCH":"2026-03-09T14:45:22.333248","MEAN_MOTION":14.34217052,"ECCENTRICITY":0.000234,"INCLINATION":86.3916,"RA_OF_ASC_NODE":98.4141,"ARG_OF_PERICENTER":95.4169,"MEAN_ANOMALY":264.7294,"EPHEMERIS_TYPE":0,"CLASSIFICATION_TYPE":"U","NORAD_CAT_ID":41924,"ELEMENT_SET_NO":999,"REV_AT_EPOCH":48083,"BSTAR":9.2737e-7,"MEAN_MOTION_DOT":2.2e-7,"MEAN_MOTION_DDOT":0},{"OBJECT_NAME":"SL-8 R\/B","OBJECT_ID":"1974-071B","EPOCH":"2026-03-09T13:19:42.519072","MEAN_MOTION":14.38187805,"ECCENTRICITY":0.002129,"INCLINATION":74.0447,"RA_OF_ASC_NODE":116.5476,"ARG_OF_PERICENTER":316.6321,"MEAN_ANOMALY":43.3157,"EPHEMERIS_TYPE":0,"CLASSIFICATION_TYPE":"U","NORAD_CAT_ID":7434,"ELEMENT_SET_NO":999,"REV_AT_EPOCH":69425,"BSTAR":0.00010628,"MEAN_MOTION_DOT":2.97e-6,"MEAN_MOTION_DDOT":0}]
